      2.10          N: GNSS NAV DATA                        RINEX VERSION / TYPE
fic2rin                                 09/03/2024 00:59:02 PGM / RUN BY / DATE
                                                            END OF HEADER
24 24  9  2  2  0  0.0 -.486791133881D-03 -.113686837722D-12  .000000000000D+00
     .890000000000D+02 -.159375000000D+02  .488591780380D-08 -.221285699559D+01
    -.104121863842D-05  .158116521779D-01  .114087015390D-04  .515370763779D+04
     .936000000000D+05  .242143869400D-06 -.297141000366D+01 -.447034835815D-07
     .934544896918D+00  .139812500000D+03  .100247755625D+01 -.788997150613D-08
     .608596779070D-09  .100000000000D+01  .233000000000D+04  .000000000000D+00
     .240000000000D+01  .000000000000D+00  .232830643654D-08  .890000000000D+02
     .864000000000D+05  .400000000000D+01
29 24  9  2  2  0  0.0 -.580481719226D-03  .227373675443D-11  .000000000000D+00
     .690000000000D+02 -.361875000000D+02  .426589197724D-08 -.391262443480D+00
    -.195764005184D-05  .293893483467D-02  .977888703346D-05  .515377597427D+04
     .936000000000D+05  .000000000000D+00 -.702490673762D+00 -.912696123123D-07
     .969926230441D+00  .196843750000D+03  .265914445620D+01 -.786032741419D-08
    -.684314218720D-09  .100000000000D+01  .233000000000D+04  .000000000000D+00
     .240000000000D+01  .000000000000D+00 -.977888703346D-08  .690000000000D+02
     .864000000000D+05  .400000000000D+01
32 24  9  2  2  0  0.0 -.600963830948D-03  .329691829393D-11  .000000000000D+00
     .680000000000D+02 -.108593750000D+03  .446590030839D-08  .368661465121D+00
    -.584125518799D-05  .782994332258D-02  .697933137417D-05  .515372444344D+04
     .936000000000D+05 -.135973095894D-06  .235336168392D+01  .745058059692D-07
     .962796830844D+00  .248687500000D+03 -.213327452710D+01 -.820819904729D-08
    -.247510309798D-09  .100000000000D+01  .233000000000D+04  .000000000000D+00
     .240000000000D+01  .000000000000D+00  .931322574615D-09  .680000000000D+02
     .864000000000D+05  .400000000000D+01
16 24  9  2  2  0  0.0 -.192295759916D-03  .102318153949D-10  .000000000000D+00
     .450000000000D+02  .120937500000D+02  .519771650576D-08  .620804461786D+00
     .931322574615D-06  .138949875254D-01  .431574881077D-05  .515360568428D+04
     .936000000000D+05 -.409781932831D-07 -.173897806175D+01  .117346644402D-06
     .960793164115D+00  .295968750000D+03  .842299225212D+00 -.863750264380D-08
    -.946467995620D-10  .100000000000D+01  .233000000000D+04  .000000000000D+00
     .240000000000D+01  .000000000000D+00 -.102445483208D-07  .450000000000D+02
     .864000000000D+05  .400000000000D+01
17 24  9  2  2  0  0.0  .638812780380D-03 -.105728759081D-10  .000000000000D+00
     .440000000000D+02 -.249062500000D+02  .445947146917D-08 -.412295881710D+00
    -.128708779812D-05  .134883190040D-01  .973790884018D-05  .515378737068D+04
     .936000000000D+05 -.141561031342D-06 -.717730880326D+00 -.204890966415D-07
     .967449387247D+00  .199218750000D+03 -.130816359600D+01 -.814712507475D-08
    -.606453832665D-09  .100000000000D+01  .233000000000D+04  .000000000000D+00
     .240000000000D+01  .000000000000D+00 -.111758708954D-07  .440000000000D+02
     .864000000000D+05  .400000000000D+01
12 24  9  2  2  0  0.0 -.534932129085D-03 -.284217094304D-11  .000000000000D+00
     .990000000000D+02  .142812500000D+02  .501092301077D-08  .238760696061D+01
     .571832060814D-06  .866710196715D-02  .415556132793D-05  .515359321213D+04
     .936000000000D+05  .372529029846D-07 -.175673895662D+01 -.132247805595D-06
     .961371882803D+00  .294187500000D+03  .146181510048D+01 -.817319758934D-08
     .200008331150D-10  .100000000000D+01  .233000000000D+04  .000000000000D+00
     .240000000000D+01  .000000000000D+00 -.125728547573D-07  .990000000000D+02
     .864000000000D+05  .400000000000D+01
10 24  9  2  2  0  0.0 -.112046487629D-03 -.118234311230D-10  .000000000000D+00
     .710000000000D+02  .373750000000D+02  .421160400164D-08  .163574799357D+01
     .187940895557D-05  .958252628334D-02  .205822288990D-05  .515368310165D+04
     .936000000000D+05 -.186264514923D-06  .131792939049D+01  .521540641785D-07
     .985137559002D+00  .352968750000D+03 -.237950692219D+01 -.825498671047D-08
     .132862677121D-09  .100000000000D+01  .233000000000D+04  .000000000000D+00
     .240000000000D+01  .000000000000D+00  .232830643654D-08  .710000000000D+02
     .864000000000D+05  .400000000000D+01
30 24  9  2  2  0  0.0 -.329088419676D-03  .693489710102D-11  .000000000000D+00
     .970000000000D+02  .915625000000D+01  .496806408267D-08  .297325853378D+01
     .473111867905D-06  .716889323667D-02  .116452574730D-04  .515359430885D+04
     .936000000000D+05 -.409781932831D-07 -.287357451173D+01 -.726431608200D-07
     .935926383125D+00  .144656250000D+03 -.244708409389D+01 -.800604776974D-08
     .541808282775D-09  .100000000000D+01  .233000000000D+04  .000000000000D+00
     .240000000000D+01  .000000000000D+00  .372529029846D-08  .970000000000D+02
     .864000000000D+05  .400000000000D+01
26 24  9  2  2  0  0.0  .880421139300D-04 -.818545231596D-11  .000000000000D+00
     .670000000000D+02  .300625000000D+02  .588024493580D-08  .152990321680D+01
     .175461173058D-05  .912309542764D-02  .461563467979D-05  .515368603897D+04
     .936000000000D+05 -.968575477600D-07 -.190881433803D+01  .247731804848D-06
     .930228684399D+00  .276531250000D+03  .548831235881D+00 -.885179728432D-08
     .186079179516D-09  .100000000000D+01  .233000000000D+04  .000000000000D+00
     .240000000000D+01  .000000000000D+00  .651925802231D-08  .670000000000D+02
     .864000000000D+05  .400000000000D+01
19 24  9  2  2  0  0.0  .532591249794D-03  .500222085975D-11  .000000000000D+00
     .630000000000D+02 -.233437500000D+02  .437911097898D-08  .153142719855D+01
    -.109709799290D-05  .999677192885D-02  .954605638981D-05  .515373098183D+04
     .936000000000D+05  .156462192535D-06 -.673480206571D+00  .894069671631D-07
     .966690568714D+00  .195156250000D+03  .263773792705D+01 -.782818321811D-08
    -.802890586473D-09  .100000000000D+01  .233000000000D+04  .000000000000D+00
     .240000000000D+01  .000000000000D+00 -.153668224812D-07  .630000000000D+02
     .864000000000D+05  .400000000000D+01
23 24  9  2  2  0  0.0  .310845207423D-03  .852651282912D-11  .000000000000D+00
     .120000000000D+02  .465937500000D+02  .424803409053D-08  .279822420527D+01
     .252202153206D-05  .460638164077D-02  .208057463169D-05  .515360209465D+04
     .936000000000D+05 -.763684511185D-07  .128845965772D+01 -.372529029846D-08
     .980280372544D+00  .347718750000D+03 -.295890906146D+01 -.817926927082D-08
     .243224416988D-09  .100000000000D+01  .233000000000D+04  .000000000000D+00
     .240000000000D+01  .000000000000D+00 -.838190317154D-08  .268000000000D+03
     .864000000000D+05  .400000000000D+01
13 24  9  2  2  0  0.0  .674210023135D-03  .204636307899D-11  .000000000000D+00
     .184000000000D+03 -.114468750000D+03  .421910431406D-08 -.635610537170D+00
    -.574626028538D-05  .856890529394D-02  .900961458683D-05  .515370048714D+04
     .936000000000D+05  .409781932831D-07  .250572915009D+01  .130385160446D-06
     .972297105700D+00  .213906250000D+03  .953516220452D+00 -.805104964425D-08
    -.186436337250D-09  .100000000000D+01  .233000000000D+04  .000000000000D+00
     .240000000000D+01  .000000000000D+00 -.116415321827D-07  .184000000000D+03
     .864000000000D+05  .400000000000D+01
9  24  9  2  2  0  0.0  .338979996741D-03  .158024704433D-10  .000000000000D+00
     .105000000000D+03 -.109093750000D+03  .448482966830D-08  .167007218007D+00
    -.584870576859D-05  .305467366707D-02  .720284879208D-05  .515360831261D+04
     .936000000000D+05 -.111758708954D-07  .233836030166D+01 -.372529029846D-08
     .959422380616D+00  .236718750000D+03  .197262424552D+01 -.820319883902D-08
    -.238224208709D-09  .100000000000D+01  .233000000000D+04  .000000000000D+00
     .240000000000D+01  .000000000000D+00  .465661287308D-09  .105000000000D+03
     .864000000000D+05  .400000000000D+01
11 24  9  2  2  0  0.0 -.729582272470D-03 -.477484718431D-11  .000000000000D+00
     .410000000000D+02  .106812500000D+03  .410552815458D-08 -.111413038112D+01
     .542216002941D-05  .164699507877D-02  .103637576103D-04  .515376584816D+04
     .936000000000D+05  .139698386192D-06  .315421057365D+00 -.204890966415D-07
     .966471477714D+00  .186218750000D+03 -.255209252186D+01 -.785747015231D-08
     .914323799542D-10  .100000000000D+01  .233000000000D+04  .000000000000D+00
     .240000000000D+01  .000000000000D+00 -.884756445885D-08  .553000000000D+03
     .864000000000D+05  .400000000000D+01
18 24  9  2  2  0  0.0 -.650659669191D-03 -.261479726760D-11  .000000000000D+00
     .239000000000D+03  .907500000000D+02  .383265964566D-08 -.229788847111D+01
     .466033816338D-05  .458975601941D-02  .106878578663D-04  .515360314751D+04
     .936000000000D+05 -.298023223877D-07  .287227577256D+00 -.260770320892D-07
     .974750384209D+00  .181156250000D+03 -.301027897192D+01 -.766424781811D-08
     .182864759908D-09  .100000000000D+01  .233000000000D+04  .000000000000D+00
     .240000000000D+01  .000000000000D+00 -.838190317154D-08  .100700000000D+04
     .864000000000D+05  .400000000000D+01
14 24  9  2  2  0  0.0  .486117321998D-03  .864019966684D-11  .000000000000D+00
     .187000000000D+03  .158437500000D+02  .548808574366D-08  .227953650467D+01
     .862404704094D-06  .484638905618D-02  .430457293987D-05  .515368891144D+04
     .936000000000D+05 -.145286321640D-06 -.180274988217D+01  .447034835815D-07
     .944722735448D+00  .289875000000D+03 -.285525163687D+01 -.851428322550D-08
     .122862260563D-09  .100000000000D+01  .233000000000D+04  .000000000000D+00
     .240000000000D+01  .000000000000D+00 -.791624188423D-08  .699000000000D+03
     .864000000000D+05  .400000000000D+01
